{
  "type": "FeatureCollection",
  "features": [
    {
      "type": "Feature",
      "properties": {
        "norad_id": 40115,
        "name": "WORLDVIEW-3 (WV-3)",
        "group": "resource",
        "lat": 35.285894686409364,
        "lon": 45.66703557702797,
        "alt_km": 612.6505810541121,
        "timestamp": "2025-12-04T21:36:15.531451+00:00",
        "meta_object_name": "WORLDVIEW-3 (WV-3)",
        "meta_object_id": "2014-048A",
        "meta_epoch": "2025-12-04T14:58:39.393984",
        "meta_mean_motion": 14.85480359,
        "meta_eccentricity": 0.00041806,
        "meta_inclination": 97.8628,
        "meta_ra_of_asc_node": 51.0066,
        "meta_arg_of_pericenter": 213.4959,
        "meta_mean_anomaly": 146.5992,
        "meta_ephemeris_type": 0,
        "meta_classification_type": "U",
        "meta_norad_cat_id": 40115,
        "meta_element_set_no": 999,
        "meta_rev_at_epoch": 61303,
        "meta_bstar": 0.00036025709,
        "meta_mean_motion_dot": 3.056e-05,
        "meta_mean_motion_ddot": 0,
        "tle_line1": "1 40115U 14048A   25338.62406706  .00003056  00000+0  36026-3 0  9993",
        "tle_line2": "2 40115  97.8628  51.0066 0004180 213.4959 146.5992 14.85480359613033"
      },
      "geometry": {
        "type": "Point",
        "coordinates": [
          45.66703557702797,
          35.285894686409364
        ]
      }
    },
    {
      "type": "Feature",
      "properties": {
        "norad_id": 40118,
        "name": "GAOFEN-2",
        "group": "resource",
        "lat": -8.97915438024018,
        "lon": 39.33444768148795,
        "alt_km": 636.2944210826445,
        "timestamp": "2025-12-04T21:36:15.531461+00:00",
        "meta_object_name": "GAOFEN-2",
        "meta_object_id": "2014-049A",
        "meta_epoch": "2025-12-04T15:09:26.516160",
        "meta_mean_motion": 14.80586343,
        "meta_eccentricity": 0.00082767,
        "meta_inclination": 98.0397,
        "meta_ra_of_asc_node": 37.7856,
        "meta_arg_of_pericenter": 136.3218,
        "meta_mean_anomaly": 223.865,
        "meta_ephemeris_type": 0,
        "meta_classification_type": "U",
        "meta_norad_cat_id": 40118,
        "meta_element_set_no": 999,
        "meta_rev_at_epoch": 61044,
        "meta_bstar": 0.00020320068,
        "meta_mean_motion_dot": 1.506e-05,
        "meta_mean_motion_ddot": 0,
        "tle_line1": "1 40118U 14049A   25338.63155690  .00001506  00000+0  20320-3 0  9999",
        "tle_line2": "2 40118  98.0397  37.7856 0008276 136.3218 223.8650 14.80586343610448"
      },
      "geometry": {
        "type": "Point",
        "coordinates": [
          39.33444768148795,
          -8.97915438024018
        ]
      }
    },
    {
      "type": "Feature",
      "properties": {
        "norad_id": 40143,
        "name": "YAOGAN-21",
        "group": "resource",
        "lat": -3.309168893941571,
        "lon": -157.8627552390357,
        "alt_km": 501.97068647487595,
        "timestamp": "2025-12-04T21:36:15.531471+00:00",
        "meta_object_name": "YAOGAN-21",
        "meta_object_id": "2014-053A",
        "meta_epoch": "2025-12-04T16:04:28.720704",
        "meta_mean_motion": 15.2352512,
        "meta_eccentricity": 0.00101911,
        "meta_inclination": 97.1769,
        "meta_ra_of_asc_node": 22.3343,
        "meta_arg_of_pericenter": 66.3362,
        "meta_mean_anomaly": 293.8944,
        "meta_ephemeris_type": 0,
        "meta_classification_type": "U",
        "meta_norad_cat_id": 40143,
        "meta_element_set_no": 999,
        "meta_rev_at_epoch": 62531,
        "meta_bstar": 0.00060852978,
        "meta_mean_motion_dot": 0.00014501,
        "meta_mean_motion_ddot": 0,
        "tle_line1": "1 40143U 14053A   25338.66977686  .00014501  00000+0  60853-3 0  9996",
        "tle_line2": "2 40143  97.1769  22.3343 0010191  66.3362 293.8944 15.23525120625310"
      },
      "geometry": {
        "type": "Point",
        "coordinates": [
          -157.8627552390357,
          -3.309168893941571
        ]
      }
    },
    {
      "type": "Feature",
      "properties": {
        "norad_id": 40275,
        "name": "YAOGAN-22",
        "group": "resource",
        "lat": 57.672785495674354,
        "lon": -40.33689323282031,
        "alt_km": 1199.9040631677253,
        "timestamp": "2025-12-04T21:36:15.531482+00:00",
        "meta_object_name": "YAOGAN-22",
        "meta_object_id": "2014-063A",
        "meta_epoch": "2025-12-04T08:12:58.061088",
        "meta_mean_motion": 13.15522481,
        "meta_eccentricity": 0.00058853,
        "meta_inclination": 100.7418,
        "meta_ra_of_asc_node": 121.6434,
        "meta_arg_of_pericenter": 268.4921,
        "meta_mean_anomaly": 91.5516,
        "meta_ephemeris_type": 0,
        "meta_classification_type": "U",
        "meta_norad_cat_id": 40275,
        "meta_element_set_no": 999,
        "meta_rev_at_epoch": 53419,
        "meta_bstar": 0.00013703687,
        "meta_mean_motion_dot": 5e-08,
        "meta_mean_motion_ddot": 0,
        "tle_line1": "1 40275U 14063A   25338.34233867  .00000005  00000+0  13704-3 0  9991",
        "tle_line2": "2 40275 100.7418 121.6434 0005885 268.4921  91.5516 13.15522481534191"
      },
      "geometry": {
        "type": "Point",
        "coordinates": [
          -40.33689323282031,
          57.672785495674354
        ]
      }
    },
    {
      "type": "Feature",
      "properties": {
        "norad_id": 40298,
        "name": "ASNARO",
        "group": "resource",
        "lat": -9.845186163290194,
        "lon": 56.32682663491621,
        "alt_km": 515.6316527743602,
        "timestamp": "2025-12-04T21:36:15.531492+00:00",
        "meta_object_name": "ASNARO",
        "meta_object_id": "2014-070A",
        "meta_epoch": "2025-12-04T15:19:29.870688",
        "meta_mean_motion": 15.19235689,
        "meta_eccentricity": 0.00052003,
        "meta_inclination": 97.3668,
        "meta_ra_of_asc_node": 54.7851,
        "meta_arg_of_pericenter": 146.1685,
        "meta_mean_anomaly": 213.9883,
        "meta_ephemeris_type": 0,
        "meta_classification_type": "U",
        "meta_norad_cat_id": 40298,
        "meta_element_set_no": 999,
        "meta_rev_at_epoch": 61446,
        "meta_bstar": 0.0012833047,
        "meta_mean_motion_dot": 0.00027056,
        "meta_mean_motion_ddot": 0,
        "tle_line1": "1 40298U 14070A   25338.63854017  .00027056  00000+0  12833-2 0  9998",
        "tle_line2": "2 40298  97.3668  54.7851 0005200 146.1685 213.9883 15.19235689614466"
      },
      "geometry": {
        "type": "Point",
        "coordinates": [
          56.32682663491621,
          -9.845186163290194
        ]
      }
    },
    {
      "type": "Feature",
      "properties": {
        "norad_id": 40310,
        "name": "YAOGAN-24",
        "group": "resource",
        "lat": 77.45401657143866,
        "lon": -30.128246982346642,
        "alt_km": 629.5925323076845,
        "timestamp": "2025-12-04T21:36:15.531502+00:00",
        "meta_object_name": "YAOGAN-24",
        "meta_object_id": "2014-072A",
        "meta_epoch": "2025-12-04T16:16:26.264928",
        "meta_mean_motion": 14.76150528,
        "meta_eccentricity": 0.00143336,
        "meta_inclination": 98.1218,
        "meta_ra_of_asc_node": 109.7288,
        "meta_arg_of_pericenter": 162.9733,
        "meta_mean_anomaly": 197.196,
        "meta_ephemeris_type": 0,
        "meta_classification_type": "U",
        "meta_norad_cat_id": 40310,
        "meta_element_set_no": 999,
        "meta_rev_at_epoch": 59502,
        "meta_bstar": 0.00027758904,
        "meta_mean_motion_dot": 1.868e-05,
        "meta_mean_motion_ddot": 0,
        "tle_line1": "1 40310U 14072A   25338.67808177  .00001868  00000+0  27759-3 0  9992",
        "tle_line2": "2 40310  98.1218 109.7288 0014333 162.9733 197.1960 14.76150528595022"
      },
      "geometry": {
        "type": "Point",
        "coordinates": [
          -30.128246982346642,
          77.45401657143866
        ]
      }
    },
    {
      "type": "Feature",
      "properties": {
        "norad_id": 40336,
        "name": "CBERS 4",
        "group": "resource",
        "lat": -80.64270618784971,
        "lon": 154.39247199538545,
        "alt_km": 781.5384063302154,
        "timestamp": "2025-12-04T21:36:15.531512+00:00",
        "meta_object_name": "CBERS 4",
        "meta_object_id": "2014-079A",
        "meta_epoch": "2025-12-04T15:21:06.019200",
        "meta_mean_motion": 14.35513109,
        "meta_eccentricity": 0.00014577,
        "meta_inclination": 98.3321,
        "meta_ra_of_asc_node": 36.9334,
        "meta_arg_of_pericenter": 123.0182,
        "meta_mean_anomaly": 237.1144,
        "meta_ephemeris_type": 0,
        "meta_classification_type": "U",
        "meta_norad_cat_id": 40336,
        "meta_element_set_no": 999,
        "meta_rev_at_epoch": 57604,
        "meta_bstar": 0.00012795299,
        "meta_mean_motion_dot": 3.26e-06,
        "meta_mean_motion_ddot": 0,
        "tle_line1": "1 40336U 14079A   25338.63965300  .00000326  00000+0  12795-3 0  9997",
        "tle_line2": "2 40336  98.3321  36.9334 0001457 123.0182 237.1144 14.35513109576042"
      },
      "geometry": {
        "type": "Point",
        "coordinates": [
          154.39247199538545,
          -80.64270618784971
        ]
      }
    }
  ]
}